<?xml version="1.0"?>
<gpx version="1.1" creator="Generated by Swisstopo App. See https://www.swisstopo.ch/app for more information." xmlns="http://www.topografix.com/GPX/1/1" xmlns:xsi="http://www.w3.org/2001/XMLSchema-instance" xmlns:swisstopo="https://prod-static.swisstopo-app.ch/xmlschemas/SwisstopoExtensions" xsi:schemaLocation="http://www.topografix.com/GPX/1/1 http://www.topografix.com/GPX/1/1/gpx.xsd https://swisstopo-app.ch/xmlschemas/SwisstopoExtensions https://prod-static.swisstopo-app.ch/xmlschemas/SwisstopoExtensions.xsd">
	<metadata>
		<name>KT Downhill 02</name>
		<desc />
		<time>2026-08-23T08:34:33+02:00</time>
		<extensions>
			<swisstopo:tour_type>0</swisstopo:tour_type>
		</extensions>
	</metadata>
	<wpt lat="46.5293251657" lon="7.6061603072">
		<ele>1318.6</ele>
		<extensions>
			<swisstopo:waypoint_id>758645445</swisstopo:waypoint_id>
			<swisstopo:waypoint_is_controlpoint>1</swisstopo:waypoint_is_controlpoint>
			<swisstopo:waypoint_routepoint_id>488995281</swisstopo:waypoint_routepoint_id>
			<swisstopo:waypoint_meters_into_tour>0.000000</swisstopo:waypoint_meters_into_tour>
		</extensions>
		<name>Starting point</name>
	</wpt>
	<wpt lat="46.5258399393" lon="7.5925680965">
		<ele>1072.4</ele>
		<extensions>
			<swisstopo:waypoint_id>1149668107</swisstopo:waypoint_id>
			<swisstopo:waypoint_is_controlpoint>1</swisstopo:waypoint_is_controlpoint>
			<swisstopo:waypoint_routepoint_id>1639156622</swisstopo:waypoint_routepoint_id>
			<swisstopo:waypoint_meters_into_tour>2017.193632</swisstopo:waypoint_meters_into_tour>
			<swisstopo:waypoint_stage_before distance="2017.193632" duration="2014.016889" ascent="4.822632" descent="250.951904" />
		</extensions>
		<name>Destination</name>
	</wpt>
	<trk>
		<name>KT Downhill 02</name>
		<trkseg>
			<trkpt lat="46.5293251657" lon="7.6061603072">
				<ele>1318.6</ele>
				<time>1970-01-01T01:00:00+01:00</time>
				<extensions>
					<swisstopo:routepoint_id>488995281</swisstopo:routepoint_id>
				</extensions>
			</trkpt>
			<trkpt lat="46.5293251657" lon="7.6061603072">
				<ele>1318.6</ele>
				<extensions>
					<swisstopo:waypoint_id>758645445</swisstopo:waypoint_id>
					<swisstopo:waypoint_is_controlpoint>1</swisstopo:waypoint_is_controlpoint>
					<swisstopo:waypoint_routepoint_id>488995281</swisstopo:waypoint_routepoint_id>
					<swisstopo:waypoint_meters_into_tour>0.000000</swisstopo:waypoint_meters_into_tour>
					<swisstopo:waypoint_trackpoint_id>swisstopo-01</swisstopo:waypoint_trackpoint_id>
					<swisstopo:waypoint_original_name>Starting point</swisstopo:waypoint_original_name>
				</extensions>
				<name>swisstopo-01</name>
			</trkpt>
			<trkpt lat="46.5292983046" lon="7.6061427865">
				<ele>1318.6</ele>
				<time>1970-01-01T01:00:00+01:00</time>
				<extensions>
					<swisstopo:routepoint_id>1349437284</swisstopo:routepoint_id>
				</extensions>
			</trkpt>
			<trkpt lat="46.5292682362" lon="7.6061161303">
				<ele>1318.9</ele>
				<time>1970-01-01T01:00:00+01:00</time>
				<extensions>
					<swisstopo:routepoint_id>1006908601</swisstopo:routepoint_id>
				</extensions>
			</trkpt>
			<trkpt lat="46.5293037075" lon="7.6060232962">
				<ele>1318.8</ele>
				<time>1970-01-01T01:00:00+01:00</time>
				<extensions>
					<swisstopo:routepoint_id>1015172967</swisstopo:routepoint_id>
				</extensions>
			</trkpt>
			<trkpt lat="46.5293444543" lon="7.6059153196">
				<ele>1319.1</ele>
				<time>1970-01-01T01:00:00+01:00</time>
				<extensions>
					<swisstopo:routepoint_id>247881171</swisstopo:routepoint_id>
				</extensions>
			</trkpt>
			<trkpt lat="46.5293825465" lon="7.6058262855">
				<ele>1319.2</ele>
				<time>1970-01-01T01:00:00+01:00</time>
				<extensions>
					<swisstopo:routepoint_id>698512794</swisstopo:routepoint_id>
				</extensions>
			</trkpt>
			<trkpt lat="46.5294416589" lon="7.6056842175">
				<ele>1319.4</ele>
				<time>1970-01-01T01:00:00+01:00</time>
				<extensions>
					<swisstopo:routepoint_id>1233051875</swisstopo:routepoint_id>
				</extensions>
			</trkpt>
			<trkpt lat="46.5294745408" lon="7.6055780928">
				<ele>1319.8</ele>
				<time>1970-01-01T01:00:00+01:00</time>
				<extensions>
					<swisstopo:routepoint_id>1052544644</swisstopo:routepoint_id>
				</extensions>
			</trkpt>
			<trkpt lat="46.5294877635" lon="7.6054928010">
				<ele>1319.9</ele>
				<time>1970-01-01T01:00:00+01:00</time>
				<extensions>
					<swisstopo:routepoint_id>2113264556</swisstopo:routepoint_id>
				</extensions>
			</trkpt>
			<trkpt lat="46.5294918056" lon="7.6054112477">
				<ele>1320.1</ele>
				<time>1970-01-01T01:00:00+01:00</time>
				<extensions>
					<swisstopo:routepoint_id>1856505030</swisstopo:routepoint_id>
				</extensions>
			</trkpt>
			<trkpt lat="46.5294854160" lon="7.6053088076">
				<ele>1320.0</ele>
				<time>1970-01-01T01:00:00+01:00</time>
				<extensions>
					<swisstopo:routepoint_id>1985538812</swisstopo:routepoint_id>
				</extensions>
			</trkpt>
			<trkpt lat="46.5294620388" lon="7.6051778500">
				<ele>1320.2</ele>
				<time>1970-01-01T01:00:00+01:00</time>
				<extensions>
					<swisstopo:routepoint_id>194119489</swisstopo:routepoint_id>
				</extensions>
			</trkpt>
			<trkpt lat="46.5294360119" lon="7.6050753632">
				<ele>1320.2</ele>
				<time>1970-01-01T01:00:00+01:00</time>
				<extensions>
					<swisstopo:routepoint_id>746783580</swisstopo:routepoint_id>
				</extensions>
			</trkpt>
			<trkpt lat="46.5294060138" lon="7.6049937054">
				<ele>1320.4</ele>
				<time>1970-01-01T01:00:00+01:00</time>
				<extensions>
					<swisstopo:routepoint_id>616769365</swisstopo:routepoint_id>
				</extensions>
			</trkpt>
			<trkpt lat="46.5293707848" lon="7.6049215206">
				<ele>1320.3</ele>
				<time>1970-01-01T01:00:00+01:00</time>
				<extensions>
					<swisstopo:routepoint_id>247770779</swisstopo:routepoint_id>
				</extensions>
			</trkpt>
			<trkpt lat="46.5293342114" lon="7.6048645151">
				<ele>1320.6</ele>
				<time>1970-01-01T01:00:00+01:00</time>
				<extensions>
					<swisstopo:routepoint_id>1477752974</swisstopo:routepoint_id>
				</extensions>
			</trkpt>
			<trkpt lat="46.5292936828" lon="7.6048359381">
				<ele>1320.7</ele>
				<time>1970-01-01T01:00:00+01:00</time>
				<extensions>
					<swisstopo:routepoint_id>74360546</swisstopo:routepoint_id>
				</extensions>
			</trkpt>
			<trkpt lat="46.5292426370" lon="7.6048206102">
				<ele>1320.6</ele>
				<time>1970-01-01T01:00:00+01:00</time>
				<extensions>
					<swisstopo:routepoint_id>587198991</swisstopo:routepoint_id>
				</extensions>
			</trkpt>
			<trkpt lat="46.5291968256" lon="7.6048242627">
				<ele>1320.6</ele>
				<time>1970-01-01T01:00:00+01:00</time>
				<extensions>
					<swisstopo:routepoint_id>767334329</swisstopo:routepoint_id>
				</extensions>
			</trkpt>
			<trkpt lat="46.5291444287" lon="7.6048468585">
				<ele>1320.5</ele>
				<time>1970-01-01T01:00:00+01:00</time>
				<extensions>
					<swisstopo:routepoint_id>1504673852</swisstopo:routepoint_id>
				</extensions>
			</trkpt>
			<trkpt lat="46.5290858675" lon="7.6048841118">
				<ele>1320.2</ele>
				<time>1970-01-01T01:00:00+01:00</time>
				<extensions>
					<swisstopo:routepoint_id>450453228</swisstopo:routepoint_id>
				</extensions>
			</trkpt>
			<trkpt lat="46.5289714497" lon="7.6049715036">
				<ele>1319.2</ele>
				<time>1970-01-01T01:00:00+01:00</time>
				<extensions>
					<swisstopo:routepoint_id>125122601</swisstopo:routepoint_id>
				</extensions>
			</trkpt>
			<trkpt lat="46.5288535115" lon="7.6050489267">
				<ele>1318.3</ele>
				<time>1970-01-01T01:00:00+01:00</time>
				<extensions>
					<swisstopo:routepoint_id>1135577201</swisstopo:routepoint_id>
				</extensions>
			</trkpt>
			<trkpt lat="46.5287198638" lon="7.6051414462">
				<ele>1317.2</ele>
				<time>1970-01-01T01:00:00+01:00</time>
				<extensions>
					<swisstopo:routepoint_id>706613994</swisstopo:routepoint_id>
				</extensions>
			</trkpt>
			<trkpt lat="46.5285508419" lon="7.6052414416">
				<ele>1316.0</ele>
				<time>1970-01-01T01:00:00+01:00</time>
				<extensions>
					<swisstopo:routepoint_id>343016510</swisstopo:routepoint_id>
				</extensions>
			</trkpt>
			<trkpt lat="46.5284316062" lon="7.6053207497">
				<ele>1314.7</ele>
				<time>1970-01-01T01:00:00+01:00</time>
				<extensions>
					<swisstopo:routepoint_id>1850212402</swisstopo:routepoint_id>
				</extensions>
			</trkpt>
			<trkpt lat="46.5283451431" lon="7.6053678863">
				<ele>1313.7</ele>
				<time>1970-01-01T01:00:00+01:00</time>
				<extensions>
					<swisstopo:routepoint_id>1297687346</swisstopo:routepoint_id>
				</extensions>
			</trkpt>
			<trkpt lat="46.5282927543" lon="7.6053847989">
				<ele>1313.2</ele>
				<time>1970-01-01T01:00:00+01:00</time>
				<extensions>
					<swisstopo:routepoint_id>2726021</swisstopo:routepoint_id>
				</extensions>
			</trkpt>
			<trkpt lat="46.5282372726" lon="7.6054014809">
				<ele>1312.2</ele>
				<time>1970-01-01T01:00:00+01:00</time>
				<extensions>
					<swisstopo:routepoint_id>572718263</swisstopo:routepoint_id>
				</extensions>
			</trkpt>
			<trkpt lat="46.5281956767" lon="7.6054074392">
				<ele>1312.0</ele>
				<time>1970-01-01T01:00:00+01:00</time>
				<extensions>
					<swisstopo:routepoint_id>2129546403</swisstopo:routepoint_id>
				</extensions>
			</trkpt>
			<trkpt lat="46.5281476632" lon="7.6054038509">
				<ele>1311.3</ele>
				<time>1970-01-01T01:00:00+01:00</time>
				<extensions>
					<swisstopo:routepoint_id>252061484</swisstopo:routepoint_id>
				</extensions>
			</trkpt>
			<trkpt lat="46.5280769506" lon="7.6053839787">
				<ele>1310.6</ele>
				<time>1970-01-01T01:00:00+01:00</time>
				<extensions>
					<swisstopo:routepoint_id>1621305962</swisstopo:routepoint_id>
				</extensions>
			</trkpt>
			<trkpt lat="46.5279851552" lon="7.6053502127">
				<ele>1309.6</ele>
				<time>1970-01-01T01:00:00+01:00</time>
				<extensions>
					<swisstopo:routepoint_id>1101556113</swisstopo:routepoint_id>
				</extensions>
			</trkpt>
			<trkpt lat="46.5278884565" lon="7.6053166274">
				<ele>1308.7</ele>
				<time>1970-01-01T01:00:00+01:00</time>
				<extensions>
					<swisstopo:routepoint_id>308395806</swisstopo:routepoint_id>
				</extensions>
			</trkpt>
			<trkpt lat="46.5277982885" lon="7.6052827895">
				<ele>1307.4</ele>
				<time>1970-01-01T01:00:00+01:00</time>
				<extensions>
					<swisstopo:routepoint_id>1929604740</swisstopo:routepoint_id>
				</extensions>
			</trkpt>
			<trkpt lat="46.5277192700" lon="7.6052470824">
				<ele>1306.2</ele>
				<time>1970-01-01T01:00:00+01:00</time>
				<extensions>
					<swisstopo:routepoint_id>1342820174</swisstopo:routepoint_id>
				</extensions>
			</trkpt>
			<trkpt lat="46.5276602230" lon="7.6052096381">
				<ele>1305.4</ele>
				<time>1970-01-01T01:00:00+01:00</time>
				<extensions>
					<swisstopo:routepoint_id>732731886</swisstopo:routepoint_id>
				</extensions>
			</trkpt>
			<trkpt lat="46.5276061713" lon="7.6051646760">
				<ele>1304.6</ele>
				<time>1970-01-01T01:00:00+01:00</time>
				<extensions>
					<swisstopo:routepoint_id>1524030493</swisstopo:routepoint_id>
				</extensions>
			</trkpt>
			<trkpt lat="46.5275564278" lon="7.6051141492">
				<ele>1303.7</ele>
				<time>1970-01-01T01:00:00+01:00</time>
				<extensions>
					<swisstopo:routepoint_id>1214489480</swisstopo:routepoint_id>
				</extensions>
			</trkpt>
			<trkpt lat="46.5275022770" lon="7.6050505883">
				<ele>1302.7</ele>
				<time>1970-01-01T01:00:00+01:00</time>
				<extensions>
					<swisstopo:routepoint_id>1919145066</swisstopo:routepoint_id>
				</extensions>
			</trkpt>
			<trkpt lat="46.5274398502" lon="7.6049687296">
				<ele>1301.8</ele>
				<time>1970-01-01T01:00:00+01:00</time>
				<extensions>
					<swisstopo:routepoint_id>1109721450</swisstopo:routepoint_id>
				</extensions>
			</trkpt>
			<trkpt lat="46.5273507042" lon="7.6048516380">
				<ele>1299.9</ele>
				<time>1970-01-01T01:00:00+01:00</time>
				<extensions>
					<swisstopo:routepoint_id>1368769446</swisstopo:routepoint_id>
				</extensions>
			</trkpt>
			<trkpt lat="46.5272416694" lon="7.6047029843">
				<ele>1297.7</ele>
				<time>1970-01-01T01:00:00+01:00</time>
				<extensions>
					<swisstopo:routepoint_id>2093832358</swisstopo:routepoint_id>
				</extensions>
			</trkpt>
			<trkpt lat="46.5271348978" lon="7.6045571932">
				<ele>1295.6</ele>
				<time>1970-01-01T01:00:00+01:00</time>
				<extensions>
					<swisstopo:routepoint_id>1416514254</swisstopo:routepoint_id>
				</extensions>
			</trkpt>
			<trkpt lat="46.5270821308" lon="7.6044872252">
				<ele>1294.6</ele>
				<time>1970-01-01T01:00:00+01:00</time>
				<extensions>
					<swisstopo:routepoint_id>542408819</swisstopo:routepoint_id>
				</extensions>
			</trkpt>
			<trkpt lat="46.5270322152" lon="7.6044513868">
				<ele>1293.7</ele>
				<time>1970-01-01T01:00:00+01:00</time>
				<extensions>
					<swisstopo:routepoint_id>1808055436</swisstopo:routepoint_id>
				</extensions>
			</trkpt>
			<trkpt lat="46.5269885708" lon="7.6044373600">
				<ele>1293.1</ele>
				<time>1970-01-01T01:00:00+01:00</time>
				<extensions>
					<swisstopo:routepoint_id>710418644</swisstopo:routepoint_id>
				</extensions>
			</trkpt>
			<trkpt lat="46.5269523617" lon="7.6044361546">
				<ele>1292.6</ele>
				<time>1970-01-01T01:00:00+01:00</time>
				<extensions>
					<swisstopo:routepoint_id>717170341</swisstopo:routepoint_id>
				</extensions>
			</trkpt>
			<trkpt lat="46.5268999919" lon="7.6044416765">
				<ele>1292.1</ele>
				<time>1970-01-01T01:00:00+01:00</time>
				<extensions>
					<swisstopo:routepoint_id>136745762</swisstopo:routepoint_id>
				</extensions>
			</trkpt>
			<trkpt lat="46.5268004698" lon="7.6044622509">
				<ele>1290.5</ele>
				<time>1970-01-01T01:00:00+01:00</time>
				<extensions>
					<swisstopo:routepoint_id>642211728</swisstopo:routepoint_id>
				</extensions>
			</trkpt>
			<trkpt lat="46.5266406881" lon="7.6044890667">
				<ele>1288.7</ele>
				<time>1970-01-01T01:00:00+01:00</time>
				<extensions>
					<swisstopo:routepoint_id>369096651</swisstopo:routepoint_id>
				</extensions>
			</trkpt>
			<trkpt lat="46.5265555781" lon="7.6044971475">
				<ele>1287.9</ele>
				<time>1970-01-01T01:00:00+01:00</time>
				<extensions>
					<swisstopo:routepoint_id>1891322882</swisstopo:routepoint_id>
				</extensions>
			</trkpt>
			<trkpt lat="46.5265176929" lon="7.6044946331">
				<ele>1287.7</ele>
				<time>1970-01-01T01:00:00+01:00</time>
				<extensions>
					<swisstopo:routepoint_id>1929589739</swisstopo:routepoint_id>
				</extensions>
			</trkpt>
			<trkpt lat="46.5264910087" lon="7.6044829128">
				<ele>1287.6</ele>
				<time>1970-01-01T01:00:00+01:00</time>
				<extensions>
					<swisstopo:routepoint_id>1432848447</swisstopo:routepoint_id>
				</extensions>
			</trkpt>
			<trkpt lat="46.5264729892" lon="7.6044600886">
				<ele>1287.3</ele>
				<time>1970-01-01T01:00:00+01:00</time>
				<extensions>
					<swisstopo:routepoint_id>1556410296</swisstopo:routepoint_id>
				</extensions>
			</trkpt>
			<trkpt lat="46.5264590371" lon="7.6043166951">
				<ele>1286.8</ele>
				<time>1970-01-01T01:00:00+01:00</time>
				<extensions>
					<swisstopo:routepoint_id>340290489</swisstopo:routepoint_id>
				</extensions>
			</trkpt>
			<trkpt lat="46.5264778135" lon="7.6042783047">
				<ele>1286.8</ele>
				<time>1970-01-01T01:00:00+01:00</time>
				<extensions>
					<swisstopo:routepoint_id>1277494139</swisstopo:routepoint_id>
				</extensions>
			</trkpt>
			<trkpt lat="46.5265149199" lon="7.6042122876">
				<ele>1286.4</ele>
				<time>1970-01-01T01:00:00+01:00</time>
				<extensions>
					<swisstopo:routepoint_id>1315624591</swisstopo:routepoint_id>
				</extensions>
			</trkpt>
			<trkpt lat="46.5265652783" lon="7.6041311021">
				<ele>1285.7</ele>
				<time>1970-01-01T01:00:00+01:00</time>
				<extensions>
					<swisstopo:routepoint_id>1898148185</swisstopo:routepoint_id>
				</extensions>
			</trkpt>
			<trkpt lat="46.5266292203" lon="7.6040362073">
				<ele>1284.8</ele>
				<time>1970-01-01T01:00:00+01:00</time>
				<extensions>
					<swisstopo:routepoint_id>1098895949</swisstopo:routepoint_id>
				</extensions>
			</trkpt>
			<trkpt lat="46.5266817723" lon="7.6039627563">
				<ele>1284.1</ele>
				<time>1970-01-01T01:00:00+01:00</time>
				<extensions>
					<swisstopo:routepoint_id>1027990289</swisstopo:routepoint_id>
				</extensions>
			</trkpt>
			<trkpt lat="46.5267569982" lon="7.6038285230">
				<ele>1282.6</ele>
				<time>1970-01-01T01:00:00+01:00</time>
				<extensions>
					<swisstopo:routepoint_id>2091149325</swisstopo:routepoint_id>
				</extensions>
			</trkpt>
			<trkpt lat="46.5268249291" lon="7.6037027638">
				<ele>1281.5</ele>
				<time>1970-01-01T01:00:00+01:00</time>
				<extensions>
					<swisstopo:routepoint_id>1839184870</swisstopo:routepoint_id>
				</extensions>
			</trkpt>
			<trkpt lat="46.5269194395" lon="7.6035337113">
				<ele>1279.8</ele>
				<time>1970-01-01T01:00:00+01:00</time>
				<extensions>
					<swisstopo:routepoint_id>1906219587</swisstopo:routepoint_id>
				</extensions>
			</trkpt>
			<trkpt lat="46.5269735807" lon="7.6034485348">
				<ele>1278.8</ele>
				<time>1970-01-01T01:00:00+01:00</time>
				<extensions>
					<swisstopo:routepoint_id>1723147568</swisstopo:routepoint_id>
				</extensions>
			</trkpt>
			<trkpt lat="46.5270542855" lon="7.6033522424">
				<ele>1277.6</ele>
				<time>1970-01-01T01:00:00+01:00</time>
				<extensions>
					<swisstopo:routepoint_id>405574246</swisstopo:routepoint_id>
				</extensions>
			</trkpt>
			<trkpt lat="46.5271080580" lon="7.6033046393">
				<ele>1276.3</ele>
				<time>1970-01-01T01:00:00+01:00</time>
				<extensions>
					<swisstopo:routepoint_id>128330694</swisstopo:routepoint_id>
				</extensions>
			</trkpt>
			<trkpt lat="46.5271631564" lon="7.6032733834">
				<ele>1276.0</ele>
				<time>1970-01-01T01:00:00+01:00</time>
				<extensions>
					<swisstopo:routepoint_id>961070468</swisstopo:routepoint_id>
				</extensions>
			</trkpt>
			<trkpt lat="46.5272172165" lon="7.6032508961">
				<ele>1275.6</ele>
				<time>1970-01-01T01:00:00+01:00</time>
				<extensions>
					<swisstopo:routepoint_id>414309043</swisstopo:routepoint_id>
				</extensions>
			</trkpt>
			<trkpt lat="46.5272920603" lon="7.6032321861">
				<ele>1275.3</ele>
				<time>1970-01-01T01:00:00+01:00</time>
				<extensions>
					<swisstopo:routepoint_id>1993203682</swisstopo:routepoint_id>
				</extensions>
			</trkpt>
			<trkpt lat="46.5274095267" lon="7.6032060070">
				<ele>1274.3</ele>
				<time>1970-01-01T01:00:00+01:00</time>
				<extensions>
					<swisstopo:routepoint_id>1972796356</swisstopo:routepoint_id>
				</extensions>
			</trkpt>
			<trkpt lat="46.5274822859" lon="7.6031860520">
				<ele>1273.6</ele>
				<time>1970-01-01T01:00:00+01:00</time>
				<extensions>
					<swisstopo:routepoint_id>1840690844</swisstopo:routepoint_id>
				</extensions>
			</trkpt>
			<trkpt lat="46.5275114024" lon="7.6031622764">
				<ele>1273.2</ele>
				<time>1970-01-01T01:00:00+01:00</time>
				<extensions>
					<swisstopo:routepoint_id>826360627</swisstopo:routepoint_id>
				</extensions>
			</trkpt>
			<trkpt lat="46.5275363768" lon="7.6031172048">
				<ele>1272.7</ele>
				<time>1970-01-01T01:00:00+01:00</time>
				<extensions>
					<swisstopo:routepoint_id>285776921</swisstopo:routepoint_id>
				</extensions>
			</trkpt>
			<trkpt lat="46.5275468066" lon="7.6030458138">
				<ele>1271.9</ele>
				<time>1970-01-01T01:00:00+01:00</time>
				<extensions>
					<swisstopo:routepoint_id>706095609</swisstopo:routepoint_id>
				</extensions>
			</trkpt>
			<trkpt lat="46.5275583348" lon="7.6028867245">
				<ele>1270.5</ele>
				<time>1970-01-01T01:00:00+01:00</time>
				<extensions>
					<swisstopo:routepoint_id>1972722126</swisstopo:routepoint_id>
				</extensions>
			</trkpt>
			<trkpt lat="46.5275584374" lon="7.6027038271">
				<ele>1269.1</ele>
				<time>1970-01-01T01:00:00+01:00</time>
				<extensions>
					<swisstopo:routepoint_id>1671309674</swisstopo:routepoint_id>
				</extensions>
			</trkpt>
			<trkpt lat="46.5275491816" lon="7.6025346913">
				<ele>1268.3</ele>
				<time>1970-01-01T01:00:00+01:00</time>
				<extensions>
					<swisstopo:routepoint_id>68206916</swisstopo:routepoint_id>
				</extensions>
			</trkpt>
			<trkpt lat="46.5275378065" lon="7.6024256845">
				<ele>1267.6</ele>
				<time>1970-01-01T01:00:00+01:00</time>
				<extensions>
					<swisstopo:routepoint_id>348073690</swisstopo:routepoint_id>
				</extensions>
			</trkpt>
			<trkpt lat="46.5275025717" lon="7.6022502663">
				<ele>1265.7</ele>
				<time>1970-01-01T01:00:00+01:00</time>
				<extensions>
					<swisstopo:routepoint_id>392906528</swisstopo:routepoint_id>
				</extensions>
			</trkpt>
			<trkpt lat="46.5274631908" lon="7.6020485344">
				<ele>1264.0</ele>
				<time>1970-01-01T01:00:00+01:00</time>
				<extensions>
					<swisstopo:routepoint_id>860105636</swisstopo:routepoint_id>
				</extensions>
			</trkpt>
			<trkpt lat="46.5274559654" lon="7.6019620879">
				<ele>1263.3</ele>
				<time>1970-01-01T01:00:00+01:00</time>
				<extensions>
					<swisstopo:routepoint_id>1083731851</swisstopo:routepoint_id>
				</extensions>
			</trkpt>
			<trkpt lat="46.5274560071" lon="7.6018894277">
				<ele>1262.6</ele>
				<time>1970-01-01T01:00:00+01:00</time>
				<extensions>
					<swisstopo:routepoint_id>334912585</swisstopo:routepoint_id>
				</extensions>
			</trkpt>
			<trkpt lat="46.5274685285" lon="7.6017954819">
				<ele>1261.9</ele>
				<time>1970-01-01T01:00:00+01:00</time>
				<extensions>
					<swisstopo:routepoint_id>1589299250</swisstopo:routepoint_id>
				</extensions>
			</trkpt>
			<trkpt lat="46.5274851707" lon="7.6017009614">
				<ele>1261.9</ele>
				<time>1970-01-01T01:00:00+01:00</time>
				<extensions>
					<swisstopo:routepoint_id>155354308</swisstopo:routepoint_id>
				</extensions>
			</trkpt>
			<trkpt lat="46.5274957672" lon="7.6016137352">
				<ele>1261.3</ele>
				<time>1970-01-01T01:00:00+01:00</time>
				<extensions>
					<swisstopo:routepoint_id>240785705</swisstopo:routepoint_id>
				</extensions>
			</trkpt>
			<trkpt lat="46.5274932560" lon="7.6015454457">
				<ele>1260.8</ele>
				<time>1970-01-01T01:00:00+01:00</time>
				<extensions>
					<swisstopo:routepoint_id>589625952</swisstopo:routepoint_id>
				</extensions>
			</trkpt>
			<trkpt lat="46.5274815402" lon="7.6014980082">
				<ele>1260.3</ele>
				<time>1970-01-01T01:00:00+01:00</time>
				<extensions>
					<swisstopo:routepoint_id>178598190</swisstopo:routepoint_id>
				</extensions>
			</trkpt>
			<trkpt lat="46.5274567434" lon="7.6014448226">
				<ele>1259.7</ele>
				<time>1970-01-01T01:00:00+01:00</time>
				<extensions>
					<swisstopo:routepoint_id>287634301</swisstopo:routepoint_id>
				</extensions>
			</trkpt>
			<trkpt lat="46.5274045018" lon="7.6013593232">
				<ele>1258.6</ele>
				<time>1970-01-01T01:00:00+01:00</time>
				<extensions>
					<swisstopo:routepoint_id>1954482507</swisstopo:routepoint_id>
				</extensions>
			</trkpt>
			<trkpt lat="46.5273378832" lon="7.6012566944">
				<ele>1257.7</ele>
				<time>1970-01-01T01:00:00+01:00</time>
				<extensions>
					<swisstopo:routepoint_id>1407194727</swisstopo:routepoint_id>
				</extensions>
			</trkpt>
			<trkpt lat="46.5272399451" lon="7.6010952044">
				<ele>1256.1</ele>
				<time>1970-01-01T01:00:00+01:00</time>
				<extensions>
					<swisstopo:routepoint_id>1269254350</swisstopo:routepoint_id>
				</extensions>
			</trkpt>
			<trkpt lat="46.5271498173" lon="7.6009507860">
				<ele>1254.5</ele>
				<time>1970-01-01T01:00:00+01:00</time>
				<extensions>
					<swisstopo:routepoint_id>368001757</swisstopo:routepoint_id>
				</extensions>
			</trkpt>
			<trkpt lat="46.5271015181" lon="7.6008633966">
				<ele>1253.8</ele>
				<time>1970-01-01T01:00:00+01:00</time>
				<extensions>
					<swisstopo:routepoint_id>1433610623</swisstopo:routepoint_id>
				</extensions>
			</trkpt>
			<trkpt lat="46.5270727945" lon="7.6008007117">
				<ele>1253.3</ele>
				<time>1970-01-01T01:00:00+01:00</time>
				<extensions>
					<swisstopo:routepoint_id>1777888893</swisstopo:routepoint_id>
				</extensions>
			</trkpt>
			<trkpt lat="46.5270402180" lon="7.6007038945">
				<ele>1252.5</ele>
				<time>1970-01-01T01:00:00+01:00</time>
				<extensions>
					<swisstopo:routepoint_id>762077100</swisstopo:routepoint_id>
				</extensions>
			</trkpt>
			<trkpt lat="46.5270037132" lon="7.6005956743">
				<ele>1251.7</ele>
				<time>1970-01-01T01:00:00+01:00</time>
				<extensions>
					<swisstopo:routepoint_id>2138748851</swisstopo:routepoint_id>
				</extensions>
			</trkpt>
			<trkpt lat="46.5269737034" lon="7.6005254009">
				<ele>1251.2</ele>
				<time>1970-01-01T01:00:00+01:00</time>
				<extensions>
					<swisstopo:routepoint_id>282610660</swisstopo:routepoint_id>
				</extensions>
			</trkpt>
			<trkpt lat="46.5269345715" lon="7.6004266744">
				<ele>1250.4</ele>
				<time>1970-01-01T01:00:00+01:00</time>
				<extensions>
					<swisstopo:routepoint_id>1135757759</swisstopo:routepoint_id>
				</extensions>
			</trkpt>
			<trkpt lat="46.5268340693" lon="7.6002196284">
				<ele>1248.5</ele>
				<time>1970-01-01T01:00:00+01:00</time>
				<extensions>
					<swisstopo:routepoint_id>721101847</swisstopo:routepoint_id>
				</extensions>
			</trkpt>
			<trkpt lat="46.5267283578" lon="7.5999936308">
				<ele>1246.5</ele>
				<time>1970-01-01T01:00:00+01:00</time>
				<extensions>
					<swisstopo:routepoint_id>1166843055</swisstopo:routepoint_id>
				</extensions>
			</trkpt>
			<trkpt lat="46.5266644167" lon="7.5998549757">
				<ele>1245.4</ele>
				<time>1970-01-01T01:00:00+01:00</time>
				<extensions>
					<swisstopo:routepoint_id>1687019435</swisstopo:routepoint_id>
				</extensions>
			</trkpt>
			<trkpt lat="46.5266304726" lon="7.5997866073">
				<ele>1244.7</ele>
				<time>1970-01-01T01:00:00+01:00</time>
				<extensions>
					<swisstopo:routepoint_id>1134595234</swisstopo:routepoint_id>
				</extensions>
			</trkpt>
			<trkpt lat="46.5265873794" lon="7.5997087102">
				<ele>1244.2</ele>
				<time>1970-01-01T01:00:00+01:00</time>
				<extensions>
					<swisstopo:routepoint_id>1001122149</swisstopo:routepoint_id>
				</extensions>
			</trkpt>
			<trkpt lat="46.5265116129" lon="7.5995984853">
				<ele>1243.1</ele>
				<time>1970-01-01T01:00:00+01:00</time>
				<extensions>
					<swisstopo:routepoint_id>761950895</swisstopo:routepoint_id>
				</extensions>
			</trkpt>
			<trkpt lat="46.5263966636" lon="7.5994217669">
				<ele>1241.4</ele>
				<time>1970-01-01T01:00:00+01:00</time>
				<extensions>
					<swisstopo:routepoint_id>637888693</swisstopo:routepoint_id>
				</extensions>
			</trkpt>
			<trkpt lat="46.5262869203" lon="7.5992659173">
				<ele>1239.7</ele>
				<time>1970-01-01T01:00:00+01:00</time>
				<extensions>
					<swisstopo:routepoint_id>1624648435</swisstopo:routepoint_id>
				</extensions>
			</trkpt>
			<trkpt lat="46.5261876523" lon="7.5991195878">
				<ele>1238.2</ele>
				<time>1970-01-01T01:00:00+01:00</time>
				<extensions>
					<swisstopo:routepoint_id>1278403145</swisstopo:routepoint_id>
				</extensions>
			</trkpt>
			<trkpt lat="46.5260844435" lon="7.5989675643">
				<ele>1236.9</ele>
				<time>1970-01-01T01:00:00+01:00</time>
				<extensions>
					<swisstopo:routepoint_id>1355584928</swisstopo:routepoint_id>
				</extensions>
			</trkpt>
			<trkpt lat="46.5260060665" lon="7.5988516254">
				<ele>1235.6</ele>
				<time>1970-01-01T01:00:00+01:00</time>
				<extensions>
					<swisstopo:routepoint_id>1411825487</swisstopo:routepoint_id>
				</extensions>
			</trkpt>
			<trkpt lat="46.5259684461" lon="7.5987889297">
				<ele>1235.0</ele>
				<time>1970-01-01T01:00:00+01:00</time>
				<extensions>
					<swisstopo:routepoint_id>57993943</swisstopo:routepoint_id>
				</extensions>
			</trkpt>
			<trkpt lat="46.5259459770" lon="7.5987623284">
				<ele>1234.7</ele>
				<time>1970-01-01T01:00:00+01:00</time>
				<extensions>
					<swisstopo:routepoint_id>1418290034</swisstopo:routepoint_id>
				</extensions>
			</trkpt>
			<trkpt lat="46.5259276974" lon="7.5987300303">
				<ele>1234.4</ele>
				<time>1970-01-01T01:00:00+01:00</time>
				<extensions>
					<swisstopo:routepoint_id>928377543</swisstopo:routepoint_id>
				</extensions>
			</trkpt>
			<trkpt lat="46.5259408294" lon="7.5986997156">
				<ele>1233.9</ele>
				<time>1970-01-01T01:00:00+01:00</time>
				<extensions>
					<swisstopo:routepoint_id>94126880</swisstopo:routepoint_id>
				</extensions>
			</trkpt>
			<trkpt lat="46.5259630882" lon="7.5986978786">
				<ele>1233.1</ele>
				<time>1970-01-01T01:00:00+01:00</time>
				<extensions>
					<swisstopo:routepoint_id>999673298</swisstopo:routepoint_id>
				</extensions>
			</trkpt>
			<trkpt lat="46.5259918579" lon="7.5987169395">
				<ele>1232.5</ele>
				<time>1970-01-01T01:00:00+01:00</time>
				<extensions>
					<swisstopo:routepoint_id>2124239766</swisstopo:routepoint_id>
				</extensions>
			</trkpt>
			<trkpt lat="46.5260101705" lon="7.5987226761">
				<ele>1231.8</ele>
				<time>1970-01-01T01:00:00+01:00</time>
				<extensions>
					<swisstopo:routepoint_id>2100635052</swisstopo:routepoint_id>
				</extensions>
			</trkpt>
			<trkpt lat="46.5260285283" lon="7.5987056572">
				<ele>1230.4</ele>
				<time>1970-01-01T01:00:00+01:00</time>
				<extensions>
					<swisstopo:routepoint_id>782627092</swisstopo:routepoint_id>
				</extensions>
			</trkpt>
			<trkpt lat="46.5260534504" lon="7.5986716102">
				<ele>1229.1</ele>
				<time>1970-01-01T01:00:00+01:00</time>
				<extensions>
					<swisstopo:routepoint_id>918887111</swisstopo:routepoint_id>
				</extensions>
			</trkpt>
			<trkpt lat="46.5260809957" lon="7.5986337396">
				<ele>1227.7</ele>
				<time>1970-01-01T01:00:00+01:00</time>
				<extensions>
					<swisstopo:routepoint_id>1165863599</swisstopo:routepoint_id>
				</extensions>
			</trkpt>
			<trkpt lat="46.5260980509" lon="7.5985996693">
				<ele>1226.9</ele>
				<time>1970-01-01T01:00:00+01:00</time>
				<extensions>
					<swisstopo:routepoint_id>1586480750</swisstopo:routepoint_id>
				</extensions>
			</trkpt>
			<trkpt lat="46.5261072792" lon="7.5985560621">
				<ele>1225.9</ele>
				<time>1970-01-01T01:00:00+01:00</time>
				<extensions>
					<swisstopo:routepoint_id>2121067751</swisstopo:routepoint_id>
				</extensions>
			</trkpt>
			<trkpt lat="46.5260955771" lon="7.5984972354">
				<ele>1226.3</ele>
				<time>1970-01-01T01:00:00+01:00</time>
				<extensions>
					<swisstopo:routepoint_id>1638849105</swisstopo:routepoint_id>
				</extensions>
			</trkpt>
			<trkpt lat="46.5260873969" lon="7.5984546192">
				<ele>1226.0</ele>
				<time>1970-01-01T01:00:00+01:00</time>
				<extensions>
					<swisstopo:routepoint_id>1753408305</swisstopo:routepoint_id>
				</extensions>
			</trkpt>
			<trkpt lat="46.5260968789" lon="7.5984554164">
				<ele>1226.0</ele>
				<time>1970-01-01T01:00:00+01:00</time>
				<extensions>
					<swisstopo:routepoint_id>1442345420</swisstopo:routepoint_id>
				</extensions>
			</trkpt>
			<trkpt lat="46.5261230877" lon="7.5984840361">
				<ele>1224.6</ele>
				<time>1970-01-01T01:00:00+01:00</time>
				<extensions>
					<swisstopo:routepoint_id>1495278233</swisstopo:routepoint_id>
				</extensions>
			</trkpt>
			<trkpt lat="46.5261408091" lon="7.5984978513">
				<ele>1223.9</ele>
				<time>1970-01-01T01:00:00+01:00</time>
				<extensions>
					<swisstopo:routepoint_id>1773802988</swisstopo:routepoint_id>
				</extensions>
			</trkpt>
			<trkpt lat="46.5261729109" lon="7.5984556539">
				<ele>1222.1</ele>
				<time>1970-01-01T01:00:00+01:00</time>
				<extensions>
					<swisstopo:routepoint_id>1417647003</swisstopo:routepoint_id>
				</extensions>
			</trkpt>
			<trkpt lat="46.5261841012" lon="7.5984348992">
				<ele>1220.4</ele>
				<time>1970-01-01T01:00:00+01:00</time>
				<extensions>
					<swisstopo:routepoint_id>1263251253</swisstopo:routepoint_id>
				</extensions>
			</trkpt>
			<trkpt lat="46.5262023984" lon="7.5984234577">
				<ele>1218.6</ele>
				<time>1970-01-01T01:00:00+01:00</time>
				<extensions>
					<swisstopo:routepoint_id>1596221972</swisstopo:routepoint_id>
				</extensions>
			</trkpt>
			<trkpt lat="46.5262247076" lon="7.5983857667">
				<ele>1217.6</ele>
				<time>1970-01-01T01:00:00+01:00</time>
				<extensions>
					<swisstopo:routepoint_id>1733990261</swisstopo:routepoint_id>
				</extensions>
			</trkpt>
			<trkpt lat="46.5262472346" lon="7.5983493797">
				<ele>1215.6</ele>
				<time>1970-01-01T01:00:00+01:00</time>
				<extensions>
					<swisstopo:routepoint_id>165720906</swisstopo:routepoint_id>
				</extensions>
			</trkpt>
			<trkpt lat="46.5262624508" lon="7.5983267993">
				<ele>1213.9</ele>
				<time>1970-01-01T01:00:00+01:00</time>
				<extensions>
					<swisstopo:routepoint_id>925068539</swisstopo:routepoint_id>
				</extensions>
			</trkpt>
			<trkpt lat="46.5262899288" lon="7.5983054929">
				<ele>1213.5</ele>
				<time>1970-01-01T01:00:00+01:00</time>
				<extensions>
					<swisstopo:routepoint_id>496706541</swisstopo:routepoint_id>
				</extensions>
			</trkpt>
			<trkpt lat="46.5263269067" lon="7.5982690963">
				<ele>1212.4</ele>
				<time>1970-01-01T01:00:00+01:00</time>
				<extensions>
					<swisstopo:routepoint_id>1523957361</swisstopo:routepoint_id>
				</extensions>
			</trkpt>
			<trkpt lat="46.5263506039" lon="7.5982282552">
				<ele>1210.4</ele>
				<time>1970-01-01T01:00:00+01:00</time>
				<extensions>
					<swisstopo:routepoint_id>1631031398</swisstopo:routepoint_id>
				</extensions>
			</trkpt>
			<trkpt lat="46.5263748591" lon="7.5981684787">
				<ele>1210.0</ele>
				<time>1970-01-01T01:00:00+01:00</time>
				<extensions>
					<swisstopo:routepoint_id>1429787413</swisstopo:routepoint_id>
				</extensions>
			</trkpt>
			<trkpt lat="46.5264215327" lon="7.5981779088">
				<ele>1209.5</ele>
				<time>1970-01-01T01:00:00+01:00</time>
				<extensions>
					<swisstopo:routepoint_id>212822948</swisstopo:routepoint_id>
				</extensions>
			</trkpt>
			<trkpt lat="46.5264619860" lon="7.5981783539">
				<ele>1209.0</ele>
				<time>1970-01-01T01:00:00+01:00</time>
				<extensions>
					<swisstopo:routepoint_id>1220409202</swisstopo:routepoint_id>
				</extensions>
			</trkpt>
			<trkpt lat="46.5265489321" lon="7.5981761597">
				<ele>1208.4</ele>
				<time>1970-01-01T01:00:00+01:00</time>
				<extensions>
					<swisstopo:routepoint_id>2084778542</swisstopo:routepoint_id>
				</extensions>
			</trkpt>
			<trkpt lat="46.5265919280" lon="7.5981832720">
				<ele>1207.9</ele>
				<time>1970-01-01T01:00:00+01:00</time>
				<extensions>
					<swisstopo:routepoint_id>483447944</swisstopo:routepoint_id>
				</extensions>
			</trkpt>
			<trkpt lat="46.5266228570" lon="7.5981911831">
				<ele>1207.5</ele>
				<time>1970-01-01T01:00:00+01:00</time>
				<extensions>
					<swisstopo:routepoint_id>2111350711</swisstopo:routepoint_id>
				</extensions>
			</trkpt>
			<trkpt lat="46.5266514064" lon="7.5982044958">
				<ele>1207.1</ele>
				<time>1970-01-01T01:00:00+01:00</time>
				<extensions>
					<swisstopo:routepoint_id>418616735</swisstopo:routepoint_id>
				</extensions>
			</trkpt>
			<trkpt lat="46.5266706700" lon="7.5982211698">
				<ele>1206.7</ele>
				<time>1970-01-01T01:00:00+01:00</time>
				<extensions>
					<swisstopo:routepoint_id>951621424</swisstopo:routepoint_id>
				</extensions>
			</trkpt>
			<trkpt lat="46.5267117947" lon="7.5982753004">
				<ele>1206.1</ele>
				<time>1970-01-01T01:00:00+01:00</time>
				<extensions>
					<swisstopo:routepoint_id>140975476</swisstopo:routepoint_id>
				</extensions>
			</trkpt>
			<trkpt lat="46.5267662353" lon="7.5983525391">
				<ele>1205.0</ele>
				<time>1970-01-01T01:00:00+01:00</time>
				<extensions>
					<swisstopo:routepoint_id>217046206</swisstopo:routepoint_id>
				</extensions>
			</trkpt>
			<trkpt lat="46.5268267407" lon="7.5984462047">
				<ele>1204.3</ele>
				<time>1970-01-01T01:00:00+01:00</time>
				<extensions>
					<swisstopo:routepoint_id>1205352655</swisstopo:routepoint_id>
				</extensions>
			</trkpt>
			<trkpt lat="46.5268168213" lon="7.5983815440">
				<ele>1204.4</ele>
				<time>1970-01-01T01:00:00+01:00</time>
				<extensions>
					<swisstopo:routepoint_id>934771453</swisstopo:routepoint_id>
				</extensions>
			</trkpt>
			<trkpt lat="46.5267959496" lon="7.5983245923">
				<ele>1204.8</ele>
				<time>1970-01-01T01:00:00+01:00</time>
				<extensions>
					<swisstopo:routepoint_id>1343629990</swisstopo:routepoint_id>
				</extensions>
			</trkpt>
			<trkpt lat="46.5267751167" lon="7.5982524573">
				<ele>1204.0</ele>
				<time>1970-01-01T01:00:00+01:00</time>
				<extensions>
					<swisstopo:routepoint_id>945303007</swisstopo:routepoint_id>
				</extensions>
			</trkpt>
			<trkpt lat="46.5267647208" lon="7.5981955238">
				<ele>1203.4</ele>
				<time>1970-01-01T01:00:00+01:00</time>
				<extensions>
					<swisstopo:routepoint_id>1674498141</swisstopo:routepoint_id>
				</extensions>
			</trkpt>
			<trkpt lat="46.5267687238" lon="7.5981443282">
				<ele>1202.6</ele>
				<time>1970-01-01T01:00:00+01:00</time>
				<extensions>
					<swisstopo:routepoint_id>1980556092</swisstopo:routepoint_id>
				</extensions>
			</trkpt>
			<trkpt lat="46.5267762850" lon="7.5981022402">
				<ele>1201.8</ele>
				<time>1970-01-01T01:00:00+01:00</time>
				<extensions>
					<swisstopo:routepoint_id>678722331</swisstopo:routepoint_id>
				</extensions>
			</trkpt>
			<trkpt lat="46.5267940366" lon="7.5980100306">
				<ele>1201.2</ele>
				<time>1970-01-01T01:00:00+01:00</time>
				<extensions>
					<swisstopo:routepoint_id>143570872</swisstopo:routepoint_id>
				</extensions>
			</trkpt>
			<trkpt lat="46.5267961251" lon="7.5979677830">
				<ele>1200.7</ele>
				<time>1970-01-01T01:00:00+01:00</time>
				<extensions>
					<swisstopo:routepoint_id>2127088965</swisstopo:routepoint_id>
				</extensions>
			</trkpt>
			<trkpt lat="46.5267861085" lon="7.5978750615">
				<ele>1198.3</ele>
				<time>1970-01-01T01:00:00+01:00</time>
				<extensions>
					<swisstopo:routepoint_id>24698417</swisstopo:routepoint_id>
				</extensions>
			</trkpt>
			<trkpt lat="46.5267901379" lon="7.5978048897">
				<ele>1196.5</ele>
				<time>1970-01-01T01:00:00+01:00</time>
				<extensions>
					<swisstopo:routepoint_id>232026980</swisstopo:routepoint_id>
				</extensions>
			</trkpt>
			<trkpt lat="46.5267941712" lon="7.5977916076">
				<ele>1196.2</ele>
				<time>1970-01-01T01:00:00+01:00</time>
				<extensions>
					<swisstopo:routepoint_id>177581016</swisstopo:routepoint_id>
				</extensions>
			</trkpt>
			<trkpt lat="46.5268206238" lon="7.5977496273">
				<ele>1195.0</ele>
				<time>1970-01-01T01:00:00+01:00</time>
				<extensions>
					<swisstopo:routepoint_id>1831140390</swisstopo:routepoint_id>
				</extensions>
			</trkpt>
			<trkpt lat="46.5268369314" lon="7.5977160625">
				<ele>1194.0</ele>
				<time>1970-01-01T01:00:00+01:00</time>
				<extensions>
					<swisstopo:routepoint_id>1097530347</swisstopo:routepoint_id>
				</extensions>
			</trkpt>
			<trkpt lat="46.5268492563" lon="7.5976533437">
				<ele>1192.2</ele>
				<time>1970-01-01T01:00:00+01:00</time>
				<extensions>
					<swisstopo:routepoint_id>671153433</swisstopo:routepoint_id>
				</extensions>
			</trkpt>
			<trkpt lat="46.5268512382" lon="7.5976307240">
				<ele>1191.7</ele>
				<time>1970-01-01T01:00:00+01:00</time>
				<extensions>
					<swisstopo:routepoint_id>1237283719</swisstopo:routepoint_id>
				</extensions>
			</trkpt>
			<trkpt lat="46.5268610138" lon="7.5975880559">
				<ele>1190.4</ele>
				<time>1970-01-01T01:00:00+01:00</time>
				<extensions>
					<swisstopo:routepoint_id>789247192</swisstopo:routepoint_id>
				</extensions>
			</trkpt>
			<trkpt lat="46.5268531036" lon="7.5975310905">
				<ele>1188.3</ele>
				<time>1970-01-01T01:00:00+01:00</time>
				<extensions>
					<swisstopo:routepoint_id>1441520789</swisstopo:routepoint_id>
				</extensions>
			</trkpt>
			<trkpt lat="46.5268444188" lon="7.5975098340">
				<ele>1187.4</ele>
				<time>1970-01-01T01:00:00+01:00</time>
				<extensions>
					<swisstopo:routepoint_id>1214402776</swisstopo:routepoint_id>
				</extensions>
			</trkpt>
			<trkpt lat="46.5268121722" lon="7.5974547393">
				<ele>1185.1</ele>
				<time>1970-01-01T01:00:00+01:00</time>
				<extensions>
					<swisstopo:routepoint_id>1311134413</swisstopo:routepoint_id>
				</extensions>
			</trkpt>
			<trkpt lat="46.5267999452" lon="7.5974379689">
				<ele>1184.3</ele>
				<time>1970-01-01T01:00:00+01:00</time>
				<extensions>
					<swisstopo:routepoint_id>410622195</swisstopo:routepoint_id>
				</extensions>
			</trkpt>
			<trkpt lat="46.5267841112" lon="7.5974312493">
				<ele>1183.7</ele>
				<time>1970-01-01T01:00:00+01:00</time>
				<extensions>
					<swisstopo:routepoint_id>1492492519</swisstopo:routepoint_id>
				</extensions>
			</trkpt>
			<trkpt lat="46.5267422432" lon="7.5974216385">
				<ele>1182.7</ele>
				<time>1970-01-01T01:00:00+01:00</time>
				<extensions>
					<swisstopo:routepoint_id>1876858652</swisstopo:routepoint_id>
				</extensions>
			</trkpt>
			<trkpt lat="46.5267493523" lon="7.5974011452">
				<ele>1182.1</ele>
				<time>1970-01-01T01:00:00+01:00</time>
				<extensions>
					<swisstopo:routepoint_id>1256542139</swisstopo:routepoint_id>
				</extensions>
			</trkpt>
			<trkpt lat="46.5267767582" lon="7.5974030241">
				<ele>1182.0</ele>
				<time>1970-01-01T01:00:00+01:00</time>
				<extensions>
					<swisstopo:routepoint_id>1666161806</swisstopo:routepoint_id>
				</extensions>
			</trkpt>
			<trkpt lat="46.5267907794" lon="7.5973459145">
				<ele>1181.0</ele>
				<time>1970-01-01T01:00:00+01:00</time>
				<extensions>
					<swisstopo:routepoint_id>1679310167</swisstopo:routepoint_id>
				</extensions>
			</trkpt>
			<trkpt lat="46.5268275043" lon="7.5972986074">
				<ele>1178.5</ele>
				<time>1970-01-01T01:00:00+01:00</time>
				<extensions>
					<swisstopo:routepoint_id>1970375235</swisstopo:routepoint_id>
				</extensions>
			</trkpt>
			<trkpt lat="46.5268432644" lon="7.5972607268">
				<ele>1176.8</ele>
				<time>1970-01-01T01:00:00+01:00</time>
				<extensions>
					<swisstopo:routepoint_id>201570529</swisstopo:routepoint_id>
				</extensions>
			</trkpt>
			<trkpt lat="46.5268367683" lon="7.5972227682">
				<ele>1176.5</ele>
				<time>1970-01-01T01:00:00+01:00</time>
				<extensions>
					<swisstopo:routepoint_id>1893752417</swisstopo:routepoint_id>
				</extensions>
			</trkpt>
			<trkpt lat="46.5268211087" lon="7.5971885884">
				<ele>1174.8</ele>
				<time>1970-01-01T01:00:00+01:00</time>
				<extensions>
					<swisstopo:routepoint_id>1353687671</swisstopo:routepoint_id>
				</extensions>
			</trkpt>
			<trkpt lat="46.5267897394" lon="7.5971562656">
				<ele>1173.7</ele>
				<time>1970-01-01T01:00:00+01:00</time>
				<extensions>
					<swisstopo:routepoint_id>1020899863</swisstopo:routepoint_id>
				</extensions>
			</trkpt>
			<trkpt lat="46.5267622960" lon="7.5971182326">
				<ele>1172.1</ele>
				<time>1970-01-01T01:00:00+01:00</time>
				<extensions>
					<swisstopo:routepoint_id>260049648</swisstopo:routepoint_id>
				</extensions>
			</trkpt>
			<trkpt lat="46.5267518730" lon="7.5970897638">
				<ele>1171.3</ele>
				<time>1970-01-01T01:00:00+01:00</time>
				<extensions>
					<swisstopo:routepoint_id>1407756959</swisstopo:routepoint_id>
				</extensions>
			</trkpt>
			<trkpt lat="46.5267597759" lon="7.5970480676">
				<ele>1169.8</ele>
				<time>1970-01-01T01:00:00+01:00</time>
				<extensions>
					<swisstopo:routepoint_id>1510557546</swisstopo:routepoint_id>
				</extensions>
			</trkpt>
			<trkpt lat="46.5267755368" lon="7.5970063813">
				<ele>1168.1</ele>
				<time>1970-01-01T01:00:00+01:00</time>
				<extensions>
					<swisstopo:routepoint_id>266580676</swisstopo:routepoint_id>
				</extensions>
			</trkpt>
			<trkpt lat="46.5267978933" lon="7.5969343731">
				<ele>1165.5</ele>
				<time>1970-01-01T01:00:00+01:00</time>
				<extensions>
					<swisstopo:routepoint_id>1530927269</swisstopo:routepoint_id>
				</extensions>
			</trkpt>
			<trkpt lat="46.5268254644" lon="7.5968775507">
				<ele>1164.0</ele>
				<time>1970-01-01T01:00:00+01:00</time>
				<extensions>
					<swisstopo:routepoint_id>2000950775</swisstopo:routepoint_id>
				</extensions>
			</trkpt>
			<trkpt lat="46.5268412410" lon="7.5968339878">
				<ele>1162.4</ele>
				<time>1970-01-01T01:00:00+01:00</time>
				<extensions>
					<swisstopo:routepoint_id>654023914</swisstopo:routepoint_id>
				</extensions>
			</trkpt>
			<trkpt lat="46.5268622348" lon="7.5967942196">
				<ele>1161.1</ele>
				<time>1970-01-01T01:00:00+01:00</time>
				<extensions>
					<swisstopo:routepoint_id>2059027540</swisstopo:routepoint_id>
				</extensions>
			</trkpt>
			<trkpt lat="46.5268688340" lon="7.5967582021">
				<ele>1159.8</ele>
				<time>1970-01-01T01:00:00+01:00</time>
				<extensions>
					<swisstopo:routepoint_id>1949507949</swisstopo:routepoint_id>
				</extensions>
			</trkpt>
			<trkpt lat="46.5268675795" lon="7.5967221616">
				<ele>1158.6</ele>
				<time>1970-01-01T01:00:00+01:00</time>
				<extensions>
					<swisstopo:routepoint_id>341041674</swisstopo:routepoint_id>
				</extensions>
			</trkpt>
			<trkpt lat="46.5268637029" lon="7.5966766252">
				<ele>1156.5</ele>
				<time>1970-01-01T01:00:00+01:00</time>
				<extensions>
					<swisstopo:routepoint_id>1281980281</swisstopo:routepoint_id>
				</extensions>
			</trkpt>
			<trkpt lat="46.5268742252" lon="7.5966463276">
				<ele>1155.5</ele>
				<time>1970-01-01T01:00:00+01:00</time>
				<extensions>
					<swisstopo:routepoint_id>1653911231</swisstopo:routepoint_id>
				</extensions>
			</trkpt>
			<trkpt lat="46.5268978175" lon="7.5966236275">
				<ele>1154.8</ele>
				<time>1970-01-01T01:00:00+01:00</time>
				<extensions>
					<swisstopo:routepoint_id>593856671</swisstopo:routepoint_id>
				</extensions>
			</trkpt>
			<trkpt lat="46.5269292538" lon="7.5966142309">
				<ele>1154.7</ele>
				<time>1970-01-01T01:00:00+01:00</time>
				<extensions>
					<swisstopo:routepoint_id>308283154</swisstopo:routepoint_id>
				</extensions>
			</trkpt>
			<trkpt lat="46.5269593459" lon="7.5966238069">
				<ele>1155.1</ele>
				<time>1970-01-01T01:00:00+01:00</time>
				<extensions>
					<swisstopo:routepoint_id>1377116291</swisstopo:routepoint_id>
				</extensions>
			</trkpt>
			<trkpt lat="46.5270051496" lon="7.5966334287">
				<ele>1155.2</ele>
				<time>1970-01-01T01:00:00+01:00</time>
				<extensions>
					<swisstopo:routepoint_id>22880943</swisstopo:routepoint_id>
				</extensions>
			</trkpt>
			<trkpt lat="46.5270692590" lon="7.5966601514">
				<ele>1155.3</ele>
				<time>1970-01-01T01:00:00+01:00</time>
				<extensions>
					<swisstopo:routepoint_id>1625596427</swisstopo:routepoint_id>
				</extensions>
			</trkpt>
			<trkpt lat="46.5271202778" lon="7.5966830563">
				<ele>1155.0</ele>
				<time>1970-01-01T01:00:00+01:00</time>
				<extensions>
					<swisstopo:routepoint_id>1030898594</swisstopo:routepoint_id>
				</extensions>
			</trkpt>
			<trkpt lat="46.5271595205" lon="7.5967059400">
				<ele>1154.5</ele>
				<time>1970-01-01T01:00:00+01:00</time>
				<extensions>
					<swisstopo:routepoint_id>1869393905</swisstopo:routepoint_id>
				</extensions>
			</trkpt>
			<trkpt lat="46.5271935015" lon="7.5967420762">
				<ele>1153.7</ele>
				<time>1970-01-01T01:00:00+01:00</time>
				<extensions>
					<swisstopo:routepoint_id>1581759408</swisstopo:routepoint_id>
				</extensions>
			</trkpt>
			<trkpt lat="46.5272248423" lon="7.5967933885">
				<ele>1152.9</ele>
				<time>1970-01-01T01:00:00+01:00</time>
				<extensions>
					<swisstopo:routepoint_id>1301563704</swisstopo:routepoint_id>
				</extensions>
			</trkpt>
			<trkpt lat="46.5272614288" lon="7.5968446900">
				<ele>1152.2</ele>
				<time>1970-01-01T01:00:00+01:00</time>
				<extensions>
					<swisstopo:routepoint_id>1973814360</swisstopo:routepoint_id>
				</extensions>
			</trkpt>
			<trkpt lat="46.5272953988" lon="7.5968941075">
				<ele>1151.3</ele>
				<time>1970-01-01T01:00:00+01:00</time>
				<extensions>
					<swisstopo:routepoint_id>197548485</swisstopo:routepoint_id>
				</extensions>
			</trkpt>
			<trkpt lat="46.5273346117" lon="7.5969321489">
				<ele>1150.6</ele>
				<time>1970-01-01T01:00:00+01:00</time>
				<extensions>
					<swisstopo:routepoint_id>1433650552</swisstopo:routepoint_id>
				</extensions>
			</trkpt>
			<trkpt lat="46.5273777768" lon="7.5969550312">
				<ele>1149.9</ele>
				<time>1970-01-01T01:00:00+01:00</time>
				<extensions>
					<swisstopo:routepoint_id>1464591277</swisstopo:routepoint_id>
				</extensions>
			</trkpt>
			<trkpt lat="46.5274144213" lon="7.5969646268">
				<ele>1149.2</ele>
				<time>1970-01-01T01:00:00+01:00</time>
				<extensions>
					<swisstopo:routepoint_id>1933041398</swisstopo:routepoint_id>
				</extensions>
			</trkpt>
			<trkpt lat="46.5274536843" lon="7.5969666443">
				<ele>1148.7</ele>
				<time>1970-01-01T01:00:00+01:00</time>
				<extensions>
					<swisstopo:routepoint_id>616687564</swisstopo:routepoint_id>
				</extensions>
			</trkpt>
			<trkpt lat="46.5274851183" lon="7.5969572609">
				<ele>1148.3</ele>
				<time>1970-01-01T01:00:00+01:00</time>
				<extensions>
					<swisstopo:routepoint_id>1328154314</swisstopo:routepoint_id>
				</extensions>
			</trkpt>
			<trkpt lat="46.5275139541" lon="7.5969345760">
				<ele>1147.7</ele>
				<time>1970-01-01T01:00:00+01:00</time>
				<extensions>
					<swisstopo:routepoint_id>1633702769</swisstopo:routepoint_id>
				</extensions>
			</trkpt>
			<trkpt lat="46.5275428137" lon="7.5968948303">
				<ele>1147.0</ele>
				<time>1970-01-01T01:00:00+01:00</time>
				<extensions>
					<swisstopo:routepoint_id>2093414359</swisstopo:routepoint_id>
				</extensions>
			</trkpt>
			<trkpt lat="46.5275690729" lon="7.5968361134">
				<ele>1146.2</ele>
				<time>1970-01-01T01:00:00+01:00</time>
				<extensions>
					<swisstopo:routepoint_id>1657825965</swisstopo:routepoint_id>
				</extensions>
			</trkpt>
			<trkpt lat="46.5276150421" lon="7.5967243430">
				<ele>1144.4</ele>
				<time>1970-01-01T01:00:00+01:00</time>
				<extensions>
					<swisstopo:routepoint_id>2140952619</swisstopo:routepoint_id>
				</extensions>
			</trkpt>
			<trkpt lat="46.5276541503" lon="7.5966307078">
				<ele>1143.6</ele>
				<time>1970-01-01T01:00:00+01:00</time>
				<extensions>
					<swisstopo:routepoint_id>2024313338</swisstopo:routepoint_id>
				</extensions>
			</trkpt>
			<trkpt lat="46.5275781759" lon="7.5966356474">
				<ele>1142.8</ele>
				<time>1970-01-01T01:00:00+01:00</time>
				<extensions>
					<swisstopo:routepoint_id>1657090418</swisstopo:routepoint_id>
				</extensions>
			</trkpt>
			<trkpt lat="46.5275045732" lon="7.5966423144">
				<ele>1141.8</ele>
				<time>1970-01-01T01:00:00+01:00</time>
				<extensions>
					<swisstopo:routepoint_id>1760040410</swisstopo:routepoint_id>
				</extensions>
			</trkpt>
			<trkpt lat="46.5274571069" lon="7.5966335739">
				<ele>1141.3</ele>
				<time>1970-01-01T01:00:00+01:00</time>
				<extensions>
					<swisstopo:routepoint_id>1619383376</swisstopo:routepoint_id>
				</extensions>
			</trkpt>
			<trkpt lat="46.5274155752" lon="7.5966197026">
				<ele>1140.7</ele>
				<time>1970-01-01T01:00:00+01:00</time>
				<extensions>
					<swisstopo:routepoint_id>51442826</swisstopo:routepoint_id>
				</extensions>
			</trkpt>
			<trkpt lat="46.5273740874" lon="7.5965868940">
				<ele>1140.1</ele>
				<time>1970-01-01T01:00:00+01:00</time>
				<extensions>
					<swisstopo:routepoint_id>312982239</swisstopo:routepoint_id>
				</extensions>
			</trkpt>
			<trkpt lat="46.5273326046" lon="7.5965386149">
				<ele>1139.5</ele>
				<time>1970-01-01T01:00:00+01:00</time>
				<extensions>
					<swisstopo:routepoint_id>777047259</swisstopo:routepoint_id>
				</extensions>
			</trkpt>
			<trkpt lat="46.5272745739" lon="7.5964473168">
				<ele>1138.2</ele>
				<time>1970-01-01T01:00:00+01:00</time>
				<extensions>
					<swisstopo:routepoint_id>295596718</swisstopo:routepoint_id>
				</extensions>
			</trkpt>
			<trkpt lat="46.5272236431" lon="7.5963680563">
				<ele>1137.2</ele>
				<time>1970-01-01T01:00:00+01:00</time>
				<extensions>
					<swisstopo:routepoint_id>1894668651</swisstopo:routepoint_id>
				</extensions>
			</trkpt>
			<trkpt lat="46.5271679613" lon="7.5962956507">
				<ele>1136.3</ele>
				<time>1970-01-01T01:00:00+01:00</time>
				<extensions>
					<swisstopo:routepoint_id>973697126</swisstopo:routepoint_id>
				</extensions>
			</trkpt>
			<trkpt lat="46.5271217344" lon="7.5962490917">
				<ele>1135.5</ele>
				<time>1970-01-01T01:00:00+01:00</time>
				<extensions>
					<swisstopo:routepoint_id>276794939</swisstopo:routepoint_id>
				</extensions>
			</trkpt>
			<trkpt lat="46.5270434849" lon="7.5961818078">
				<ele>1134.2</ele>
				<time>1970-01-01T01:00:00+01:00</time>
				<extensions>
					<swisstopo:routepoint_id>570975728</swisstopo:routepoint_id>
				</extensions>
			</trkpt>
			<trkpt lat="46.5269948865" lon="7.5961317753">
				<ele>1133.4</ele>
				<time>1970-01-01T01:00:00+01:00</time>
				<extensions>
					<swisstopo:routepoint_id>830170375</swisstopo:routepoint_id>
				</extensions>
			</trkpt>
			<trkpt lat="46.5269736256" lon="7.5960980877">
				<ele>1132.9</ele>
				<time>1970-01-01T01:00:00+01:00</time>
				<extensions>
					<swisstopo:routepoint_id>346217697</swisstopo:routepoint_id>
				</extensions>
			</trkpt>
			<trkpt lat="46.5269581751" lon="7.5960491421">
				<ele>1132.5</ele>
				<time>1970-01-01T01:00:00+01:00</time>
				<extensions>
					<swisstopo:routepoint_id>300970685</swisstopo:routepoint_id>
				</extensions>
			</trkpt>
			<trkpt lat="46.5269456471" lon="7.5959164144">
				<ele>1131.7</ele>
				<time>1970-01-01T01:00:00+01:00</time>
				<extensions>
					<swisstopo:routepoint_id>43837019</swisstopo:routepoint_id>
				</extensions>
			</trkpt>
			<trkpt lat="46.5269536793" lon="7.5958857444">
				<ele>1131.5</ele>
				<time>1970-01-01T01:00:00+01:00</time>
				<extensions>
					<swisstopo:routepoint_id>1876818538</swisstopo:routepoint_id>
				</extensions>
			</trkpt>
			<trkpt lat="46.5269727572" lon="7.5958273197">
				<ele>1131.1</ele>
				<time>1970-01-01T01:00:00+01:00</time>
				<extensions>
					<swisstopo:routepoint_id>2043063193</swisstopo:routepoint_id>
				</extensions>
			</trkpt>
			<trkpt lat="46.5269965557" lon="7.5957792570">
				<ele>1130.6</ele>
				<time>1970-01-01T01:00:00+01:00</time>
				<extensions>
					<swisstopo:routepoint_id>1384210923</swisstopo:routepoint_id>
				</extensions>
			</trkpt>
			<trkpt lat="46.5270334493" lon="7.5957174561">
				<ele>1129.8</ele>
				<time>1970-01-01T01:00:00+01:00</time>
				<extensions>
					<swisstopo:routepoint_id>2015396799</swisstopo:routepoint_id>
				</extensions>
			</trkpt>
			<trkpt lat="46.5270703254" lon="7.5956556289">
				<ele>1129.1</ele>
				<time>1970-01-01T01:00:00+01:00</time>
				<extensions>
					<swisstopo:routepoint_id>509223083</swisstopo:routepoint_id>
				</extensions>
			</trkpt>
			<trkpt lat="46.5270989045" lon="7.5955903760">
				<ele>1128.3</ele>
				<time>1970-01-01T01:00:00+01:00</time>
				<extensions>
					<swisstopo:routepoint_id>411990734</swisstopo:routepoint_id>
				</extensions>
			</trkpt>
			<trkpt lat="46.5271096669" lon="7.5955371011">
				<ele>1127.8</ele>
				<time>1970-01-01T01:00:00+01:00</time>
				<extensions>
					<swisstopo:routepoint_id>816962988</swisstopo:routepoint_id>
				</extensions>
			</trkpt>
			<trkpt lat="46.5271061626" lon="7.5954872127">
				<ele>1127.3</ele>
				<time>1970-01-01T01:00:00+01:00</time>
				<extensions>
					<swisstopo:routepoint_id>136436963</swisstopo:routepoint_id>
				</extensions>
			</trkpt>
			<trkpt lat="46.5270931768" lon="7.5954407505">
				<ele>1126.8</ele>
				<time>1970-01-01T01:00:00+01:00</time>
				<extensions>
					<swisstopo:routepoint_id>299338629</swisstopo:routepoint_id>
				</extensions>
			</trkpt>
			<trkpt lat="46.5270682999" lon="7.5954045634">
				<ele>1126.3</ele>
				<time>1970-01-01T01:00:00+01:00</time>
				<extensions>
					<swisstopo:routepoint_id>670756852</swisstopo:routepoint_id>
				</extensions>
			</trkpt>
			<trkpt lat="46.5270291710" lon="7.5953769239">
				<ele>1125.6</ele>
				<time>1970-01-01T01:00:00+01:00</time>
				<extensions>
					<swisstopo:routepoint_id>1817811996</swisstopo:routepoint_id>
				</extensions>
			</trkpt>
			<trkpt lat="46.5269651161" lon="7.5953423569">
				<ele>1124.7</ele>
				<time>1970-01-01T01:00:00+01:00</time>
				<extensions>
					<swisstopo:routepoint_id>1640233797</swisstopo:routepoint_id>
				</extensions>
			</trkpt>
			<trkpt lat="46.5268998908" lon="7.5953060401">
				<ele>1123.8</ele>
				<time>1970-01-01T01:00:00+01:00</time>
				<extensions>
					<swisstopo:routepoint_id>69101021</swisstopo:routepoint_id>
				</extensions>
			</trkpt>
			<trkpt lat="46.5268548261" lon="7.5952732355">
				<ele>1123.3</ele>
				<time>1970-01-01T01:00:00+01:00</time>
				<extensions>
					<swisstopo:routepoint_id>735547</swisstopo:routepoint_id>
				</extensions>
			</trkpt>
			<trkpt lat="46.5268216597" lon="7.5952249950">
				<ele>1122.6</ele>
				<time>1970-01-01T01:00:00+01:00</time>
				<extensions>
					<swisstopo:routepoint_id>380912209</swisstopo:routepoint_id>
				</extensions>
			</trkpt>
			<trkpt lat="46.5267956400" lon="7.5951509694">
				<ele>1121.8</ele>
				<time>1970-01-01T01:00:00+01:00</time>
				<extensions>
					<swisstopo:routepoint_id>404929962</swisstopo:routepoint_id>
				</extensions>
			</trkpt>
			<trkpt lat="46.5267791413" lon="7.5950718103">
				<ele>1121.1</ele>
				<time>1970-01-01T01:00:00+01:00</time>
				<extensions>
					<swisstopo:routepoint_id>1605647592</swisstopo:routepoint_id>
				</extensions>
			</trkpt>
			<trkpt lat="46.5267698138" lon="7.5949479684">
				<ele>1119.9</ele>
				<time>1970-01-01T01:00:00+01:00</time>
				<extensions>
					<swisstopo:routepoint_id>1447058171</swisstopo:routepoint_id>
				</extensions>
			</trkpt>
			<trkpt lat="46.5267593468" lon="7.5947880080">
				<ele>1118.4</ele>
				<time>1970-01-01T01:00:00+01:00</time>
				<extensions>
					<swisstopo:routepoint_id>842336117</swisstopo:routepoint_id>
				</extensions>
			</trkpt>
			<trkpt lat="46.5267488390" lon="7.5946641497">
				<ele>1117.2</ele>
				<time>1970-01-01T01:00:00+01:00</time>
				<extensions>
					<swisstopo:routepoint_id>1903329756</swisstopo:routepoint_id>
				</extensions>
			</trkpt>
			<trkpt lat="46.5267406308" lon="7.5945884678">
				<ele>1116.5</ele>
				<time>1970-01-01T01:00:00+01:00</time>
				<extensions>
					<swisstopo:routepoint_id>565797236</swisstopo:routepoint_id>
				</extensions>
			</trkpt>
			<trkpt lat="46.5267264526" lon="7.5945368288">
				<ele>1115.8</ele>
				<time>1970-01-01T01:00:00+01:00</time>
				<extensions>
					<swisstopo:routepoint_id>1950833781</swisstopo:routepoint_id>
				</extensions>
			</trkpt>
			<trkpt lat="46.5267087069" lon="7.5944955145">
				<ele>1115.4</ele>
				<time>1970-01-01T01:00:00+01:00</time>
				<extensions>
					<swisstopo:routepoint_id>18801778</swisstopo:routepoint_id>
				</extensions>
			</trkpt>
			<trkpt lat="46.5266850189" lon="7.5944644926">
				<ele>1114.9</ele>
				<time>1970-01-01T01:00:00+01:00</time>
				<extensions>
					<swisstopo:routepoint_id>1323692923</swisstopo:routepoint_id>
				</extensions>
			</trkpt>
			<trkpt lat="46.5266399717" lon="7.5944230744">
				<ele>1114.0</ele>
				<time>1970-01-01T01:00:00+01:00</time>
				<extensions>
					<swisstopo:routepoint_id>143526751</swisstopo:routepoint_id>
				</extensions>
			</trkpt>
			<trkpt lat="46.5265937228" lon="7.5943919876">
				<ele>1113.4</ele>
				<time>1970-01-01T01:00:00+01:00</time>
				<extensions>
					<swisstopo:routepoint_id>2078060890</swisstopo:routepoint_id>
				</extensions>
			</trkpt>
			<trkpt lat="46.5265498256" lon="7.5943712299">
				<ele>1112.9</ele>
				<time>1970-01-01T01:00:00+01:00</time>
				<extensions>
					<swisstopo:routepoint_id>270005042</swisstopo:routepoint_id>
				</extensions>
			</trkpt>
			<trkpt lat="46.5265059280" lon="7.5943573530">
				<ele>1112.3</ele>
				<time>1970-01-01T01:00:00+01:00</time>
				<extensions>
					<swisstopo:routepoint_id>786333356</swisstopo:routepoint_id>
				</extensions>
			</trkpt>
			<trkpt lat="46.5264655718" lon="7.5943520632">
				<ele>1111.9</ele>
				<time>1970-01-01T01:00:00+01:00</time>
				<extensions>
					<swisstopo:routepoint_id>616882807</swisstopo:routepoint_id>
				</extensions>
			</trkpt>
			<trkpt lat="46.5264192943" lon="7.5943485033">
				<ele>1111.2</ele>
				<time>1970-01-01T01:00:00+01:00</time>
				<extensions>
					<swisstopo:routepoint_id>405391140</swisstopo:routepoint_id>
				</extensions>
			</trkpt>
			<trkpt lat="46.5263635036" lon="7.5943483429">
				<ele>1110.6</ele>
				<time>1970-01-01T01:00:00+01:00</time>
				<extensions>
					<swisstopo:routepoint_id>807109743</swisstopo:routepoint_id>
				</extensions>
			</trkpt>
			<trkpt lat="46.5263255153" lon="7.5943482337">
				<ele>1110.1</ele>
				<time>1970-01-01T01:00:00+01:00</time>
				<extensions>
					<swisstopo:routepoint_id>2008905386</swisstopo:routepoint_id>
				</extensions>
			</trkpt>
			<trkpt lat="46.5262887351" lon="7.5943395257">
				<ele>1109.4</ele>
				<time>1970-01-01T01:00:00+01:00</time>
				<extensions>
					<swisstopo:routepoint_id>1533840109</swisstopo:routepoint_id>
				</extensions>
			</trkpt>
			<trkpt lat="46.5262519596" lon="7.5943273765">
				<ele>1108.9</ele>
				<time>1970-01-01T01:00:00+01:00</time>
				<extensions>
					<swisstopo:routepoint_id>972220189</swisstopo:routepoint_id>
				</extensions>
			</trkpt>
			<trkpt lat="46.5262128357" lon="7.5942894297">
				<ele>1108.1</ele>
				<time>1970-01-01T01:00:00+01:00</time>
				<extensions>
					<swisstopo:routepoint_id>1198433811</swisstopo:routepoint_id>
				</extensions>
			</trkpt>
			<trkpt lat="46.5261690082" lon="7.5942308380">
				<ele>1107.3</ele>
				<time>1970-01-01T01:00:00+01:00</time>
				<extensions>
					<swisstopo:routepoint_id>372786120</swisstopo:routepoint_id>
				</extensions>
			</trkpt>
			<trkpt lat="46.5261227923" lon="7.5941756792">
				<ele>1106.7</ele>
				<time>1970-01-01T01:00:00+01:00</time>
				<extensions>
					<swisstopo:routepoint_id>112652105</swisstopo:routepoint_id>
				</extensions>
			</trkpt>
			<trkpt lat="46.5260860473" lon="7.5941411791">
				<ele>1106.2</ele>
				<time>1970-01-01T01:00:00+01:00</time>
				<extensions>
					<swisstopo:routepoint_id>146206136</swisstopo:routepoint_id>
				</extensions>
			</trkpt>
			<trkpt lat="46.5260421572" lon="7.5941152607">
				<ele>1105.6</ele>
				<time>1970-01-01T01:00:00+01:00</time>
				<extensions>
					<swisstopo:routepoint_id>466108614</swisstopo:routepoint_id>
				</extensions>
			</trkpt>
			<trkpt lat="46.5259947020" lon="7.5940979216">
				<ele>1104.8</ele>
				<time>1970-01-01T01:00:00+01:00</time>
				<extensions>
					<swisstopo:routepoint_id>806588480</swisstopo:routepoint_id>
				</extensions>
			</trkpt>
			<trkpt lat="46.5259543528" lon="7.5940874965">
				<ele>1104.3</ele>
				<time>1970-01-01T01:00:00+01:00</time>
				<extensions>
					<swisstopo:routepoint_id>601655831</swisstopo:routepoint_id>
				</extensions>
			</trkpt>
			<trkpt lat="46.5259151951" lon="7.5940873842">
				<ele>1103.8</ele>
				<time>1970-01-01T01:00:00+01:00</time>
				<extensions>
					<swisstopo:routepoint_id>1817076449</swisstopo:routepoint_id>
				</extensions>
			</trkpt>
			<trkpt lat="46.5258582006" lon="7.5940992640">
				<ele>1103.1</ele>
				<time>1970-01-01T01:00:00+01:00</time>
				<extensions>
					<swisstopo:routepoint_id>1259321588</swisstopo:routepoint_id>
				</extensions>
			</trkpt>
			<trkpt lat="46.5257940788" lon="7.5941196969">
				<ele>1102.3</ele>
				<time>1970-01-01T01:00:00+01:00</time>
				<extensions>
					<swisstopo:routepoint_id>1811654707</swisstopo:routepoint_id>
				</extensions>
			</trkpt>
			<trkpt lat="46.5257608308" lon="7.5941264966">
				<ele>1101.9</ele>
				<time>1970-01-01T01:00:00+01:00</time>
				<extensions>
					<swisstopo:routepoint_id>542571603</swisstopo:routepoint_id>
				</extensions>
			</trkpt>
			<trkpt lat="46.5257216664" lon="7.5941246501">
				<ele>1101.4</ele>
				<time>1970-01-01T01:00:00+01:00</time>
				<extensions>
					<swisstopo:routepoint_id>1081337686</swisstopo:routepoint_id>
				</extensions>
			</trkpt>
			<trkpt lat="46.5256896335" lon="7.5941176901">
				<ele>1101.0</ele>
				<time>1970-01-01T01:00:00+01:00</time>
				<extensions>
					<swisstopo:routepoint_id>1710077493</swisstopo:routepoint_id>
				</extensions>
			</trkpt>
			<trkpt lat="46.5256528493" lon="7.5940986747">
				<ele>1100.4</ele>
				<time>1970-01-01T01:00:00+01:00</time>
				<extensions>
					<swisstopo:routepoint_id>1849801483</swisstopo:routepoint_id>
				</extensions>
			</trkpt>
			<trkpt lat="46.5256554280" lon="7.5940681314">
				<ele>1100.3</ele>
				<time>1970-01-01T01:00:00+01:00</time>
				<extensions>
					<swisstopo:routepoint_id>881260935</swisstopo:routepoint_id>
				</extensions>
			</trkpt>
			<trkpt lat="46.5256340848" lon="7.5940129030">
				<ele>1098.8</ele>
				<time>1970-01-01T01:00:00+01:00</time>
				<extensions>
					<swisstopo:routepoint_id>1038985984</swisstopo:routepoint_id>
				</extensions>
			</trkpt>
			<trkpt lat="46.5255795284" lon="7.5938730851">
				<ele>1095.4</ele>
				<time>1970-01-01T01:00:00+01:00</time>
				<extensions>
					<swisstopo:routepoint_id>1884527978</swisstopo:routepoint_id>
				</extensions>
			</trkpt>
			<trkpt lat="46.5255499047" lon="7.5937816268">
				<ele>1093.2</ele>
				<time>1970-01-01T01:00:00+01:00</time>
				<extensions>
					<swisstopo:routepoint_id>1389587960</swisstopo:routepoint_id>
				</extensions>
			</trkpt>
			<trkpt lat="46.5255238525" lon="7.5936832710">
				<ele>1090.9</ele>
				<time>1970-01-01T01:00:00+01:00</time>
				<extensions>
					<swisstopo:routepoint_id>1807307029</swisstopo:routepoint_id>
				</extensions>
			</trkpt>
			<trkpt lat="46.5255060782" lon="7.5936297728">
				<ele>1089.6</ele>
				<time>1970-01-01T01:00:00+01:00</time>
				<extensions>
					<swisstopo:routepoint_id>88224536</swisstopo:routepoint_id>
				</extensions>
			</trkpt>
			<trkpt lat="46.5254609396" lon="7.5935693014">
				<ele>1088.6</ele>
				<time>1970-01-01T01:00:00+01:00</time>
				<extensions>
					<swisstopo:routepoint_id>1053687881</swisstopo:routepoint_id>
				</extensions>
			</trkpt>
			<trkpt lat="46.5254026913" lon="7.5935243010">
				<ele>1088.1</ele>
				<time>1970-01-01T01:00:00+01:00</time>
				<extensions>
					<swisstopo:routepoint_id>1504677043</swisstopo:routepoint_id>
				</extensions>
			</trkpt>
			<trkpt lat="46.5253812990" lon="7.5934983841">
				<ele>1087.7</ele>
				<time>1970-01-01T01:00:00+01:00</time>
				<extensions>
					<swisstopo:routepoint_id>1461178082</swisstopo:routepoint_id>
				</extensions>
			</trkpt>
			<trkpt lat="46.5253801610" lon="7.5934621746">
				<ele>1087.2</ele>
				<time>1970-01-01T01:00:00+01:00</time>
				<extensions>
					<swisstopo:routepoint_id>2012097550</swisstopo:routepoint_id>
				</extensions>
			</trkpt>
			<trkpt lat="46.5253904763" lon="7.5934178539">
				<ele>1086.8</ele>
				<time>1970-01-01T01:00:00+01:00</time>
				<extensions>
					<swisstopo:routepoint_id>2126707260</swisstopo:routepoint_id>
				</extensions>
			</trkpt>
			<trkpt lat="46.5254270643" lon="7.5934290615">
				<ele>1086.4</ele>
				<time>1970-01-01T01:00:00+01:00</time>
				<extensions>
					<swisstopo:routepoint_id>755461069</swisstopo:routepoint_id>
				</extensions>
			</trkpt>
			<trkpt lat="46.5254650385" lon="7.5934394792">
				<ele>1085.6</ele>
				<time>1970-01-01T01:00:00+01:00</time>
				<extensions>
					<swisstopo:routepoint_id>1019034679</swisstopo:routepoint_id>
				</extensions>
			</trkpt>
			<trkpt lat="46.5255125083" lon="7.5934396149">
				<ele>1084.5</ele>
				<time>1970-01-01T01:00:00+01:00</time>
				<extensions>
					<swisstopo:routepoint_id>1982373202</swisstopo:routepoint_id>
				</extensions>
			</trkpt>
			<trkpt lat="46.5255505106" lon="7.5934294142">
				<ele>1083.7</ele>
				<time>1970-01-01T01:00:00+01:00</time>
				<extensions>
					<swisstopo:routepoint_id>810471575</swisstopo:routepoint_id>
				</extensions>
			</trkpt>
			<trkpt lat="46.5255897058" lon="7.5934020143">
				<ele>1082.9</ele>
				<time>1970-01-01T01:00:00+01:00</time>
				<extensions>
					<swisstopo:routepoint_id>1161053989</swisstopo:routepoint_id>
				</extensions>
			</trkpt>
			<trkpt lat="46.5256218063" lon="7.5933659791">
				<ele>1082.2</ele>
				<time>1970-01-01T01:00:00+01:00</time>
				<extensions>
					<swisstopo:routepoint_id>859568084</swisstopo:routepoint_id>
				</extensions>
			</trkpt>
			<trkpt lat="46.5256681887" lon="7.5932990569">
				<ele>1080.8</ele>
				<time>1970-01-01T01:00:00+01:00</time>
				<extensions>
					<swisstopo:routepoint_id>1052227675</swisstopo:routepoint_id>
				</extensions>
			</trkpt>
			<trkpt lat="46.5257431164" lon="7.5931909282">
				<ele>1078.4</ele>
				<time>1970-01-01T01:00:00+01:00</time>
				<extensions>
					<swisstopo:routepoint_id>2054161154</swisstopo:routepoint_id>
				</extensions>
			</trkpt>
			<trkpt lat="46.5258275459" lon="7.5930742240">
				<ele>1076.0</ele>
				<time>1970-01-01T01:00:00+01:00</time>
				<extensions>
					<swisstopo:routepoint_id>1453547273</swisstopo:routepoint_id>
				</extensions>
			</trkpt>
			<trkpt lat="46.5259274514" lon="7.5929283444">
				<ele>1073.0</ele>
				<time>1970-01-01T01:00:00+01:00</time>
				<extensions>
					<swisstopo:routepoint_id>1692033952</swisstopo:routepoint_id>
				</extensions>
			</trkpt>
			<trkpt lat="46.5259881083" lon="7.5928425378">
				<ele>1071.6</ele>
				<time>1970-01-01T01:00:00+01:00</time>
				<extensions>
					<swisstopo:routepoint_id>796515813</swisstopo:routepoint_id>
				</extensions>
			</trkpt>
			<trkpt lat="46.5260380578" lon="7.5927652902">
				<ele>1070.1</ele>
				<time>1970-01-01T01:00:00+01:00</time>
				<extensions>
					<swisstopo:routepoint_id>1694750539</swisstopo:routepoint_id>
				</extensions>
			</trkpt>
			<trkpt lat="46.5260713687" lon="7.5927120676">
				<ele>1069.4</ele>
				<time>1970-01-01T01:00:00+01:00</time>
				<extensions>
					<swisstopo:routepoint_id>937484772</swisstopo:routepoint_id>
				</extensions>
			</trkpt>
			<trkpt lat="46.5260951733" lon="7.5926639901">
				<ele>1068.8</ele>
				<time>1970-01-01T01:00:00+01:00</time>
				<extensions>
					<swisstopo:routepoint_id>1274504846</swisstopo:routepoint_id>
				</extensions>
			</trkpt>
			<trkpt lat="46.5261070827" lon="7.5926313507">
				<ele>1068.8</ele>
				<time>1970-01-01T01:00:00+01:00</time>
				<extensions>
					<swisstopo:routepoint_id>177983902</swisstopo:routepoint_id>
				</extensions>
			</trkpt>
			<trkpt lat="46.5261190151" lon="7.5925883893">
				<ele>1068.8</ele>
				<time>1970-01-01T01:00:00+01:00</time>
				<extensions>
					<swisstopo:routepoint_id>101577214</swisstopo:routepoint_id>
				</extensions>
			</trkpt>
			<trkpt lat="46.5260762930" lon="7.5925831196">
				<ele>1068.9</ele>
				<time>1970-01-01T01:00:00+01:00</time>
				<extensions>
					<swisstopo:routepoint_id>840253767</swisstopo:routepoint_id>
				</extensions>
			</trkpt>
			<trkpt lat="46.5260145813" lon="7.5925777832">
				<ele>1069.9</ele>
				<time>1970-01-01T01:00:00+01:00</time>
				<extensions>
					<swisstopo:routepoint_id>200076751</swisstopo:routepoint_id>
				</extensions>
			</trkpt>
			<trkpt lat="46.5259457314" lon="7.5925758534">
				<ele>1070.8</ele>
				<time>1970-01-01T01:00:00+01:00</time>
				<extensions>
					<swisstopo:routepoint_id>671091509</swisstopo:routepoint_id>
				</extensions>
			</trkpt>
			<trkpt lat="46.5258697774" lon="7.5925721980">
				<ele>1072.0</ele>
				<time>1970-01-01T01:00:00+01:00</time>
				<extensions>
					<swisstopo:routepoint_id>2112757153</swisstopo:routepoint_id>
				</extensions>
			</trkpt>
			<trkpt lat="46.5258399393" lon="7.5925680965">
				<ele>1072.4</ele>
				<time>1970-01-01T01:00:00+01:00</time>
				<extensions>
					<swisstopo:routepoint_id>1639156622</swisstopo:routepoint_id>
				</extensions>
			</trkpt>
			<trkpt lat="46.5258399393" lon="7.5925680965">
				<ele>1072.4</ele>
				<extensions>
					<swisstopo:waypoint_id>1149668107</swisstopo:waypoint_id>
					<swisstopo:waypoint_is_controlpoint>1</swisstopo:waypoint_is_controlpoint>
					<swisstopo:waypoint_routepoint_id>1639156622</swisstopo:waypoint_routepoint_id>
					<swisstopo:waypoint_meters_into_tour>2017.193632</swisstopo:waypoint_meters_into_tour>
					<swisstopo:waypoint_stage_before distance="2017.193632" duration="2014.016889" ascent="4.822632" descent="250.951904" />
					<swisstopo:waypoint_trackpoint_id>swisstopo-02</swisstopo:waypoint_trackpoint_id>
					<swisstopo:waypoint_original_name>Destination</swisstopo:waypoint_original_name>
				</extensions>
				<name>swisstopo-02</name>
			</trkpt>
		</trkseg>
	</trk>
</gpx>
